{
    "links": {
        "self": "http://www.neowsapp.com/rest/v1/neo/3787078?api_key=iIulBulltgU6a56xZRHN4H3l9WmuAYTsLGpBGhQ2"
    },
    "id": "3787078",
    "neo_reference_id": "3787078",
    "name": "(2017 UP)",
    "designation": "2017 UP",
    "nasa_jpl_url": "http://ssd.jpl.nasa.gov/sbdb.cgi?sstr=3787078",
    "absolute_magnitude_h": 26.1,
    "estimated_diameter": {
        "kilometers": {
            "estimated_diameter_min": 0.0160160338,
            "estimated_diameter_max": 0.0358129403
        },
        "meters": {
            "estimated_diameter_min": 16.0160337979,
            "estimated_diameter_max": 35.8129403019
        },
        "miles": {
            "estimated_diameter_min": 0.0099518989,
            "estimated_diameter_max": 0.0222531225
        },
        "feet": {
            "estimated_diameter_min": 52.5460443254,
            "estimated_diameter_max": 117.4965270602
        }
    },
    "is_potentially_hazardous_asteroid": false,
    "close_approach_data": [
        {
            "close_approach_date": "2017-10-20",
            "close_approach_date_full": "2017-Oct-20 14:32",
            "epoch_date_close_approach": 1508509920000,
            "relative_velocity": {
                "kilometers_per_second": "14.3147670083",
                "kilometers_per_hour": "51533.1612299866",
                "miles_per_hour": "32020.7023209325"
            },
            "miss_distance": {
                "astronomical": "0.0168716845",
                "lunar": "6.5630852705",
                "kilometers": "2523968.064512015",
                "miles": "1568321.031275207"
            },
            "orbiting_body": "Earth"
        }
    ],
    "orbital_data": {
        "orbit_id": "1",
        "orbit_determination_date": "2017-10-19 06:18:55",
        "first_observation_date": "2017-10-16",
        "last_observation_date": "2017-10-18",
        "data_arc_in_days": 2,
        "observations_used": 23,
        "orbit_uncertainty": "8",
        "minimum_orbit_intersection": ".00678891",
        "jupiter_tisserand_invariant": "2.912",
        "epoch_osculation": "2458043.5",
        "eccentricity": ".7011930525908248",
        "semi_major_axis": "2.781437149810698",
        "inclination": "2.368274177853902",
        "ascending_node_longitude": "214.7071750467575",
        "orbital_period": "1694.346786383297",
        "perihelion_distance": ".8311127441454117",
        "perihelion_argument": "223.7610464471337",
        "aphelion_distance": "4.731761555475985",
        "perihelion_time": "2458081.761946755278",
        "mean_anomaly": "351.870435885618",
        "mean_motion": ".2124712620185892",
        "equinox": "J2000",
        "orbit_class": {
            "orbit_class_type": "APO",
            "orbit_class_description": "Near-Earth asteroid orbits which cross the Earth’s orbit similar to that of 1862 Apollo",
            "orbit_class_range": "a (semi-major axis) > 1.0 AU; q (perihelion) < 1.017 AU"
        }
    },
    "is_sentry_object": false
}